#dP2023  4  3 12  0  0.00000000      96 __u+U ITR00 EXT  IAC
## 2256 129600.00000000   900.00000000 60037 0.5000000000000
+  120   C06C07C08C09C10C11C12C13C14C16C19C20C21C22C23C24C25
+        C26C27C28C29C30C32C33C34C35C36C37C38C39C40C41C42C43
+        C44C45C46E01E02E03E04E05E07E08E09E10E11E12E13E14E15
+        E18E19E21E24E25E26E27E30E31E33E34E36G01G02G03G04G05
+        G06G07G08G09G10G11G12G13G14G15G16G17G18G19G20G21G22
+        G23G24G25G26G27G28G29G30G31G32J02J03J04R01R02R03R04
+        R05R07R08R09R11R12R13R14R15R16R17R18R19R20R21R22R24
+        R25  0  0  0  0  0  0  0  0  0  0  0  0  0  0  0  0
++         8 10 10  8  9 10  7  9  9  8  8  8  8  9  7  9  7
++        10  8  7 10  7  8  9  8  9 10  8 10 10 11  9  8  9
++         7  8  9  7  7  8  7  8  7  7  8  7  7  8  8  8  8
++         7  8  7  7  7  8  7  7  7  7  8  7  7  7  6  8  7
++         7  8  8  7  7  7  7  9  6  8  6  8  7  7  7  8  6
++         8  9  8  7  8 10  9  8  7  7 10 10  8  8  8  9  9
++         9  8  6  7  7  8  9  7  7  8  9  7  9 10  9  8 10
++         8  0  0  0  0  0  0  0  0  0  0  0  0  0  0  0  0
%c M  cc GPS ccc cccc cccc cccc cccc ccccc ccccc ccccc ccccc
%c cc cc ccc ccc cccc cccc cccc cccc ccccc ccccc ccccc ccccc
%f  0.0000000  0.000000000  0.00000000000  0.000000000000000
%f  0.0000000  0.000000000  0.00000000000  0.000000000000000
%i    0    0    0    0      0      0      0      0         0
%i    0    0    0    0      0      0      0      0         0
/* IAC                                ULTRA-RAPID PREDICTION
/* S/V CLOCKS ARE ALIGNED TO GNSS TIME                      
/* G:C1WC2W R:C1PC2P E:C1XC5X C:C2IC6I J:C1CC2S             
/* PCV:IGS20_2247 OL/AL:FES2004  NONE     YN ORB:CoN CLK:CoN
*  2023 04 03 15  0  0.00000000
PC06 -15684.235623  38956.052056  -5136.786097   -197.211327
PC07  -3983.618687  31506.975796 -27620.381948   -115.924584
PC08 -14272.424135  20442.060440  33961.213291    510.578046
PC09 -10421.215833  38561.547528 -13921.829419    808.759086
PC10   3702.173092  34501.891017 -23324.571691    -24.400385
PC11   7619.008319 -26827.924811  -1117.291111    741.977419
PC12  15835.300140 -16906.522087  15595.477349    547.791470
PC13  -6395.088848  22479.451519  35219.830241    244.471856
PC14  -1386.155822 -20165.818894 -19242.993923     75.110457
PC16 -17550.554301  38439.004784  -2161.224558    120.211948
PC19  10182.471456  22654.763528  12726.625155   -898.834524
PC20  -6181.350616  15478.752517  22394.780841    645.630769
PC21  20085.737704   1646.796912 -19268.502232   -909.143477
PC22  21479.627438  17120.491507  -4827.679891   -553.845571
PC23 -19827.457414  -8172.332508  17854.263424   -898.819624
PC24  19253.432907 -15025.566199  13508.082013   -215.688149
PC25  -1978.951207 -16289.211595  22562.085026     99.531567
PC26  27149.355563  -6243.201073  -1952.699254   -101.073211
PC27 -17164.358413   8356.349717 -20382.588180    120.189368
PC28 -12773.121901 -11204.862021 -22135.648131     88.347502
PC29    943.439914  25939.415518  10247.454835    102.217921
PC30 -11650.313918  24118.577090  -7888.402150      0.591868
PC32 -20168.038035  -1547.902709  19253.799853   -586.088971
PC33 -10295.952515 -22602.182795 -12733.932296   -872.000229
PC34  11000.919515 -24744.533997   6668.735403    140.861371
PC35  12787.330736  11808.641304  21808.926610    652.791514
PC36    801.690858  16482.573078 -22484.694928   -523.741854
PC37 -27305.778186   4725.186524   3195.722958   -793.873029
PC38 -22588.727199  21324.169157  28484.683088     69.321217
PC39 -18801.901738  37645.625444   4211.078819     -2.408767
PC40  -6760.826485  27249.942710 -31395.068774    -19.324408
PC41 -21414.538242 -17398.552445   4276.455021   -804.207673
PC42   7314.143727 -14602.722515 -22581.253130   -754.774098
PC43   -376.749701 -26218.800185  -9522.261285     14.923687
PC44  16949.438948  -8706.913541  20359.930417     64.535548
PC45  20168.880368   7808.892658 -17651.283438    -80.408054
PC46 -17836.605876  15481.311256 -14839.685636    -44.406785
PE01  17860.713470  17180.615603 -16196.736545     -7.789190
PE02 -18269.781543 -17051.372925  15840.373057     30.179510
PE03 -12423.615973 -25294.951200   9079.485684   -665.586324
PE04  17863.808310   8136.781391 -22142.614356    -92.565837
PE05    477.652328 -27973.135260  -9661.797139    -80.268781
PE07 -13021.584373  14056.817684  22569.754125    -34.816904
PE08 -17758.151169  -8392.247602  22154.653083    -61.522929
PE09  12934.945397 -13890.793504 -22708.738675   -891.979747
PE10  24041.234312 -10836.327300  13433.963977   -523.806750
PE11  22910.853932 -18394.748511   3480.366217   1479.572061
PE12  21438.276186  -2111.718080  20285.806359   -484.016188
PE13 -23134.085467  17966.989043  -4317.704303    -18.243381
PE14  13382.674170  13317.382143  13992.176163    186.750694
PE15 -21253.629944   1903.508425 -20516.077803    -11.989478
PE18 -18493.407770 -17843.717598 -19785.410886   -208.140812
PE19  10857.951962  26716.503682  -6664.548365  -2853.084623
PE21  -1433.129586  16948.331157 -24231.913920   -521.260438
PE24  22122.943524  -6494.077493  18557.076667    -24.019767
PE25   1824.570646 -16851.379897  24265.016805   -602.584585
PE26 -10736.402573  23289.619468  14791.188431     64.482770
PE27 -21471.481200   7096.428654 -19096.534730    -16.096272
PE30 -28587.669607  -7324.819042  -2200.382659    -63.288688
PE31  28670.052078   6838.663983   2764.607827   -520.312074
PE33   6822.165198  15181.333278  24482.562148   -447.281921
PE34  -7012.810974 -15047.011960 -24512.096961    -38.299554
PE36  11437.708294 -23302.810277 -14207.282218    -35.888086
PG01  10838.239958 -20199.906956 -13420.431250    196.586352
PG02  -6216.239398  21221.052649  15506.856966   -609.370438
PG03   1418.963836 -15170.939088 -21891.240601   -337.272932
PG04    919.524012 -25662.882600  -6540.688895      8.046902
PG05 -17998.553469   7432.980609  17945.900017   -121.984805
PG06 -19027.179598    -28.249397 -18509.660127    585.295694
PG07  -3492.826167 -16500.552365  20856.624351    209.443898
PG08   8193.263797 -18617.085916  16798.012291   -116.027025
PG09  -7694.485489 -25121.567639   3655.877388   -187.604882
PG10  23800.723254  11496.079049   4144.118957    -31.269718
PG11 -22974.373185  11079.569932  -7338.634647   -150.540838
PG12  -4965.008839  14450.262541 -22009.557360   -359.441435
PG13 -13086.256230  11633.532008  19734.901594    500.300175
PG14 -21984.859102 -13634.547525   6341.696899     14.222077
PG15  -5848.098024  20011.048985  15848.946682     27.339598
PG16  20759.270100  -2791.282618  16289.887693   -511.374031
PG17 -12645.885356 -16857.974127 -15675.621319    708.803206
PG18   6380.635376  13846.930686  21735.112266   -207.999793
PG19 -14859.224838  -7305.961277 -21057.385648    298.733139
PG20 -24290.699202   2980.782445  10107.190733    441.136380
PG21  16262.433193 -19960.118463  -3724.559715    154.303435
PG22  15114.404454   3347.012127 -21156.347624    457.432462
PG23  16036.437455  15606.598657  14425.562506     14.449934
PG24 -12471.577500  21652.571993  -8708.138077   -137.494524
PG25   7270.143438  17103.162683 -19389.304237    432.794439
PG26  26009.571074   3753.482604   4842.084116    241.911223
PG27  13552.851465  -7407.993131  21308.312020     66.901663
PG28  18196.006342   1668.647589 -19301.816773     58.112235
PG29   2857.907031  26357.221698    280.389113   -593.892207
PG30 -14667.928196  -7808.126948  20866.899808   -524.101953
PG31  21873.013529  -3959.696573 -15042.301232   -213.129177
PG32  14833.437881  13692.991388 -17187.401631   -441.591282
PJ02 -28445.780669  15508.883043 -22406.254868     -1.396723
PJ03 -25968.351712  31960.097570  -4500.193034      1.748328
PJ04 -26693.162623  25875.883765  25929.198942     94.155792
PR01  -7013.716754   8985.432544  22826.158046     25.980004
PR02   6353.531759  20874.452252  13315.028733    -23.017460
PR03  15546.479391  19920.276956  -3644.110908     75.355410
PR04  15711.610076   8182.275307 -18323.393007    181.890684
PR05   7514.406718  -8049.782426 -22989.452096    110.380161
PR07 -15774.364358 -19484.890843   4623.379813     53.058790
PR08 -15788.728212  -7771.614841  18518.065940    -70.186286
PR09   1778.661469 -11477.535316  22719.385336    112.700242
PR11 -25146.006275    111.476073   4335.273709    -29.447205
PR12 -19553.749385   8293.692143 -14092.096307     26.153726
PR13  -4031.813759  11233.928630 -22561.167462    -33.598475
PR14  16248.322973   7491.387628 -18165.507920     24.480602
PR15  25311.231254   -434.757233  -3106.895979     90.019460
PR16  19719.943830  -8265.019470  13889.542326     13.105362
PR17   4671.899916  12722.765438  21607.764331    617.943877
PR18  12762.305321  -3551.750713  21797.780288     74.701503
PR19  15085.957155 -16781.148179  11887.708889   -227.690271
PR20   7921.433376 -22613.960545  -8672.198884    -90.465803
PR21  -5542.524947 -11255.883997 -22215.153005   -385.222538
PR22 -13549.406782   3901.753515 -21237.118486     77.703326
PR24  -6636.651479  22845.669819   9208.678304    158.978419
PR25  -4147.909401 -13295.204189 -21370.595376     59.604976
EOF
